[
  { "name": "Egypt", "code": "EG", "dialCode": "20", "flag": "ğŸ‡ªğŸ‡¬" },
  { "name": "United States", "code": "US", "dialCode": "1", "flag": "ğŸ‡ºğŸ‡¸" },
  { "name": "United Kingdom", "code": "GB", "dialCode": "44", "flag": "ğŸ‡¬ğŸ‡§" },
  { "name": "Canada", "code": "CA", "dialCode": "1", "flag": "ğŸ‡¨ğŸ‡¦" },
  { "name": "Australia", "code": "AU", "dialCode": "61", "flag": "ğŸ‡¦ğŸ‡º" },
  { "name": "Germany", "code": "DE", "dialCode": "49", "flag": "ğŸ‡©ğŸ‡ª" },
  { "name": "France", "code": "FR", "dialCode": "33", "flag": "ğŸ‡«ğŸ‡·" },
  { "name": "Italy", "code": "IT", "dialCode": "39", "flag": "ğŸ‡®ğŸ‡¹" },
  { "name": "Spain", "code": "ES", "dialCode": "34", "flag": "ğŸ‡ªğŸ‡¸" },
  { "name": "India", "code": "IN", "dialCode": "91", "flag": "ğŸ‡®ğŸ‡³" },
  { "name": "Brazil", "code": "BR", "dialCode": "55", "flag": "ğŸ‡§ğŸ‡·" },
  { "name": "Mexico", "code": "MX", "dialCode": "52", "flag": "ğŸ‡²ğŸ‡½" },
  { "name": "Japan", "code": "JP", "dialCode": "81", "flag": "ğŸ‡¯ğŸ‡µ" },
  { "name": "South Korea", "code": "KR", "dialCode": "82", "flag": "ğŸ‡°ğŸ‡·" },
  { "name": "Russia", "code": "RU", "dialCode": "7", "flag": "ğŸ‡·ğŸ‡º" },
  { "name": "South Africa", "code": "ZA", "dialCode": "27", "flag": "ğŸ‡¿ğŸ‡¦" },
  { "name": "Argentina", "code": "AR", "dialCode": "54", "flag": "ğŸ‡¦ğŸ‡·" },
  { "name": "Saudi Arabia", "code": "SA", "dialCode": "966", "flag": "ğŸ‡¸ğŸ‡¦" },
  { "name": "Turkey", "code": "TR", "dialCode": "90", "flag": "ğŸ‡¹ğŸ‡·" },
  { "name": "Thailand", "code": "TH", "dialCode": "66", "flag": "ğŸ‡¹ğŸ‡­" },
  { "name": "Vietnam", "code": "VN", "dialCode": "84", "flag": "ğŸ‡»ğŸ‡³" },
  { "name": "Netherlands", "code": "NL", "dialCode": "31", "flag": "ğŸ‡³ğŸ‡±" },
  { "name": "Sweden", "code": "SE", "dialCode": "46", "flag": "ğŸ‡¸ğŸ‡ª" },
  { "name": "Norway", "code": "NO", "dialCode": "47", "flag": "ğŸ‡³ğŸ‡´" },
  { "name": "Denmark", "code": "DK", "dialCode": "45", "flag": "ğŸ‡©ğŸ‡°" },
  { "name": "Finland", "code": "FI", "dialCode": "358", "flag": "ğŸ‡«ğŸ‡®" },
  { "name": "Iceland", "code": "IS", "dialCode": "354", "flag": "ğŸ‡®ğŸ‡¸" },
  { "name": "Ireland", "code": "IE", "dialCode": "353", "flag": "ğŸ‡®ğŸ‡ª" },
  { "name": "Belgium", "code": "BE", "dialCode": "32", "flag": "ğŸ‡§ğŸ‡ª" },
  { "name": "Switzerland", "code": "CH", "dialCode": "41", "flag": "ğŸ‡¨ğŸ‡­" }
]
